1 45382U 20019Y   23037.53892895  .00045248  00000-0  24966-2 0  9990
2 45382  53.0490 163.4791 0001382  41.1857 318.9239 15.13536759159988
1 45382U 20019Y   23037.73702879  .00047464  00000-0  26159-2 0  9992
2 45382  53.0490 162.5799 0001445  40.7810 319.3290 15.13555138160010
1 45382U 20019Y   23037.73702879  .00047464  00000-0  26159-2 0  9992
2 45382  53.0490 162.5799 0001445  40.7810 319.3290 15.13555138160010
1 45382U 20019Y   23038.59543400  .00049522  00000-0  27217-2 0  9993
2 45382  53.0490 158.6829 0001637  39.8907 320.2205 15.13634851160140
1 45382U 20019Y   23039.58584206  .00051026  00000-0  27956-2 0  9994
2 45382  53.0495 154.1860 0001842  40.1454 319.9674 15.13733071160296
1 45382U 20019Y   23039.58584206  .00051026  00000-0  27956-2 0  9994
2 45382  53.0495 154.1860 0001842  40.1454 319.9674 15.13733071160296
1 45382U 20019Y   23040.44414405  .00050677  00000-0  27700-2 0  9992
2 45382  53.0499 150.2885 0002091  38.8642 321.2500 15.13818761160423
1 45382U 20019Y   23040.51016506  .00052171  00000-0  28500-2 0  9990
2 45382  53.0499 149.9884 0002087  40.2023 319.9123 15.13826334160433
1 45382U 20019Y   23041.10434374  .00049755  00000-0  27155-2 0  9992
2 45382  53.0501 147.2896 0002162  40.5105 319.6047 15.13881518160526
1 45382U 20019Y   23041.50044900  .00053032  00000-0  28884-2 0  9991
2 45382  53.0503 145.4907 0002221  40.5096 319.6061 15.13924975160583
1 45382U 20019Y   23041.50044900  .00053032  00000-0  28884-2 0  9991
2 45382  53.0503 145.4907 0002221  40.5096 319.6061 15.13924975160583
1 45382U 20019Y   23042.35864282  .00050786  00000-0  27611-2 0  9998
2 45382  53.0503 141.5927 0002394  39.5995 320.5171 15.14009023160716
1 45382U 20019Y   23042.49066798  .00048616  00000-0  26438-2 0  9994
2 45382  53.0502 140.9923 0002324  42.4018 317.7154 15.14020166160738
1 45382U 20019Y   23042.95274903  .00045526  00000-0  24748-2 0  9993
2 45382  53.0503 138.8942 0002555  38.5159 321.6015 15.14063737160803
1 45382U 20019Y   23043.54683383  .00045934  00000-0  24929-2 0  9999
2 45382  53.0501 136.1950 0002592  39.5209 320.5972 15.14117731160892
1 45382U 20019Y   23044.20690407  .00041911  00000-0  22737-2 0  9994
2 45382  53.0499 133.1959 0002674  40.8126 319.3066 15.14173749160990
1 45382U 20019Y   23044.53693043  .00039663  00000-0  21518-2 0  9996
2 45382  53.0497 131.6963 0002716  40.8172 319.3024 15.14198705161044
1 45382U 20019Y   23045.26296759  .00040259  00000-0  21800-2 0  9997
2 45382  53.0495 128.3970 0002785  42.3680 317.7527 15.14258968161150
1 45382U 20019Y   23045.59297552  .00040552  00000-0  21941-2 0  9997
2 45382  53.0494 126.8974 0002838  42.8088 317.3125 15.14284369161202
1 45382U 20019Y   23045.65897650  .00040322  00000-0  21815-2 0  9994
2 45382  53.0494 126.5975 0002835  42.9408 317.1805 15.14289264161217
1 45382U 20019Y   23046.51696841  .00048456  00000-0  26100-2 0  9997
2 45382  53.0492 122.6982 0002931  45.1074 315.0156 15.14361526161343
1 45382U 20019Y   23046.58296598  .00049796  00000-0  26807-2 0  9991
2 45382  53.0492 122.3982 0002946  44.9163 315.2068 15.14368198161359
1 45382U 20019Y   23047.44091103  .00045034  00000-0  24224-2 0  9994
2 45382  53.0488 118.4987 0003043  46.6585 313.4661 15.14443107161488
1 45382U 20019Y   23047.44091103  .00045034  00000-0  24224-2 0  9994
2 45382  53.0488 118.4987 0003043  46.6585 313.4661 15.14443107161488
1 45382U 20019Y   23048.43079475  .00033409  00000-0  18003-2 0  9993
2 45382  53.0487 113.9985 0003207  49.0002 311.1268 15.14519479161639
1 45382U 20019Y   23048.43079475  .00033409  00000-0  18003-2 0  9993
2 45382  53.0487 113.9985 0003207  49.0002 311.1268 15.14519479161639
1 45382U 20019Y   23048.89272553  .00027265  00000-0  14724-2 0  9994
2 45382  53.0489 111.8989 0003241  50.3946 309.7332 15.14545540161703
1 45382U 20019Y   23049.42063766  .00024107  00000-0  13034-2 0  9993
2 45382  53.0488 109.4987 0003311  51.3039 308.8250 15.14571043161789
1 45382U 20019Y   23049.42063766  .00024107  00000-0  13034-2 0  9993
2 45382  53.0488 109.4987 0003311  51.3039 308.8250 15.14571043161789
1 45382U 20019Y   23050.41044689  .00026119  00000-0  14083-2 0  9997
2 45382  53.0491 104.9985 0003472  52.5822 307.5486 15.14624100161939
1 45382U 20019Y   23050.93833125  .00025209  00000-0  13589-2 0  9994
2 45382  53.0488 102.5978 0003535  53.8558 306.2762 15.14651493162019
1 45382U 20019Y   23051.40022221  .00025394  00000-0  13678-2 0  9998
2 45382  53.0488 100.4978 0003636  54.0863 306.0466 15.14675919162085
1 45382U 20019Y   23052.25799900  .00027672  00000-0  14865-2 0  9997
2 45382  53.0490  96.5964 0003720  55.9933 304.1413 15.14724706162215
1 45382U 20019Y   23052.52192446  .00030731  00000-0  16475-2 0  9998
2 45382  53.0488  95.3958 0003772  56.5264 303.6089 15.14742415162257
1 45382U 20019Y   23053.37966233  .00026850  00000-0  14402-2 0  9990
2 45382  53.0489  91.4940 0003855  59.0901 301.0470 15.14793043162387
1 45382U 20019Y   23053.37966233  .00026850  00000-0  14402-2 0  9990
2 45382  53.0489  91.4940 0003855  59.0901 301.0470 15.14793043162387
1 45382U 20019Y   23054.36932657  .00030407  00000-0  16254-2 0  9993
2 45382  53.0493  86.9924 0003952  61.5160 298.6230 15.14849903162535
1 45382U 20019Y   23055.02908163  .00029015  00000-0  15504-2 0  9992
2 45382  53.0498  83.9904 0003957  64.5867 295.5535 15.14887938162632
1 45382U 20019Y   23055.29297943  .00028877  00000-0  15425-2 0  9995
2 45382  53.0498  82.7900 0003973  65.9657 294.1751 15.14902531162671
1 45382U 20019Y   23055.75479414  .00022022  00000-0  11806-2 0  9996
2 45382  53.0500  80.6891 0003975  66.5036 293.6374 15.14923629162745
1 45382U 20019Y   23056.21660211  .00022120  00000-0  11850-2 0  9993
2 45382  53.0502  78.5882 0003983  67.7246 292.4169 15.14945910162812
1 45382U 20019Y   23056.21660211  .00022120  00000-0  11850-2 0  9993
2 45382  53.0502  78.5882 0003983  67.7246 292.4169 15.14945910162812
1 45382U 20019Y   23056.74437404  .00024041  00000-0  12852-2 0  9994
2 45382  53.0504  76.1874 0004011  69.0866 291.0556 15.14973357162894
1 45382U 20019Y   23057.33810490  .00031221  00000-0  16607-2 0  9990
2 45382  53.0505  73.4864 0004036  70.5750 289.5678 15.15011491162980
1 45382U 20019Y   23057.33810490  .00031221  00000-0  16607-2 0  9990
2 45382  53.0505  73.4864 0004036  70.5750 289.5678 15.15011491162980
1 45382U 20019Y   23057.73391725  .00032123  00000-0  17068-2 0  9993
2 45382  53.0504  71.6854 0004029  71.6479 288.4952 15.15037227163046
1 45382U 20019Y   23057.93182123  .00029155  00000-0  15508-2 0  9993
2 45382  53.0504  70.7849 0004031  72.5028 287.6405 15.15046934163075
1 45382U 20019Y   23058.72340990  .00096622  00000-0  50372-2 0  9990
2 45382  53.0501  67.1833 0004094  73.8244 286.3199 15.15168371163197
1 45382U 20019Y   23058.72340990  .00096622  00000-0  50372-2 0  9990
2 45382  53.0501  67.1833 0004094  73.8244 286.3199 15.15168371163197
1 45382U 20019Y   23059.25111367  .00051210  00000-0  26926-2 0  9995
2 45382  53.0499  64.7814 0004102  75.3465 284.7983 15.15188814163273
1 45382U 20019Y   23059.38303650  .00047876  00000-0  25187-2 0  9998
2 45382  53.0498  64.1811 0004115  75.7621 284.3829 15.15199895163293
1 45382U 20019Y   23059.71283926  .00036304  00000-0  19157-2 0  9992
2 45382  53.0497  62.6804 0004119  77.3120 282.8333 15.15221882163344
1 45382U 20019Y   23059.71283926  .00036304  00000-0  19157-2 0  9992
2 45382  53.0497  62.6804 0004119  77.3120 282.8333 15.15221882163344
1 45382U 20019Y   23060.37242870  .00037853  00000-0  19934-2 0  9992
2 45382  53.0493  59.6782 0004167  79.2516 280.8946 15.15272914163445
1 45382U 20019Y   23060.96604246  .00031350  00000-0  16535-2 0  9996
2 45382  53.0489  56.9761 0004210  80.8727 279.2742 15.15310009163532
1 45382U 20019Y   23061.69154779  .00036239  00000-0  19046-2 0  9999
2 45382  53.0487  53.6739 0004221  84.6875 275.4599 15.15364015163643
1 45382U 20019Y   23062.35107410  .00049987  00000-0  26114-2 0  9991
2 45382  53.0486  50.6712 0004287  86.7199 273.4285 15.15427124163746
1 45382U 20019Y   23062.35107410  .00049987  00000-0  26114-2 0  9991
2 45382  53.0486  50.6712 0004287  86.7199 273.4285 15.15427124163746
1 45382U 20019Y   23062.68082685  .00048742  00000-0  25450-2 0  9993
2 45382  53.0485  49.1703 0004310  87.5652 272.5834 15.15457928163798
1 45382U 20019Y   23063.27436265  .00057093  00000-0  29692-2 0  9997
2 45382  53.0485  46.4679 0004337  89.4264 270.7226 15.15524480163882
1 45382U 20019Y   23063.93381865  .00048577  00000-0  25272-2 0  9992
2 45382  53.0485  43.4644 0004364  91.8296 268.3197 15.15586937163989
1 45382U 20019Y   23063.93381865  .00048577  00000-0  25272-2 0  9992
2 45382  53.0485  43.4644 0004364  91.8296 268.3197 15.15586937163989
1 45382U 20019Y   23064.32947761  .00055751  00000-0  28914-2 0  9997
2 45382  53.0486  41.6623 0004396  93.7720 266.3776 15.15633514164048
1 45382U 20019Y   23064.65918491  .00055954  00000-0  28989-2 0  9998
2 45382  53.0490  40.1613 0004428  94.1236 266.0263 15.15668134164098
1 45382U 20019Y   23064.65918491  .00055954  00000-0  28989-2 0  9998
2 45382  53.0490  40.1613 0004428  94.1236 266.0263 15.15668134164098
1 45382U 20019Y   23065.31857304  .00061962  00000-0  31982-2 0  9990
2 45382  53.0492  37.1569 0004448  97.2694 262.8805 15.15751910164192
1 45382U 20019Y   23065.91199321  .00060496  00000-0  31174-2 0  9998
2 45382  53.0497  34.4541 0004456  98.6203 261.5295 15.15821166164287
1 45382U 20019Y   23066.63724438  .00066298  00000-0  34029-2 0  9999
2 45382  53.0502  31.1499 0004578 101.7186 258.4321 15.15916404164398
1 45382U 20019Y   23066.63724438  .00066298  00000-0  34029-2 0  9999
2 45382  53.0502  31.1499 0004578 101.7186 258.4321 15.15916404164398
1 45382U 20019Y   23067.29652554  .00054718  00000-0  28096-2 0  9992
2 45382  53.0507  28.1454 0004599 104.7439 255.4064 15.15994181164497
1 45382U 20019Y   23067.29652554  .00054718  00000-0  28096-2 0  9992
2 45382  53.0507  28.1454 0004599 104.7439 255.4064 15.15994181164497
